NORAD_CAT_ID,OBJECT_NAME,OBJECT_TYPE,EPOCH,MEAN_MOTION,ECCENTRICITY,INCLINATION,RA_OF_ASC_NODE,ARG_OF_PERICENTER,MEAN_ANOMALY,BSTAR,MEAN_MOTION_DOT,MEAN_MOTION_DDOT,TLE_LINE0,TLE_LINE1,TLE_LINE2,SEMIMAJOR_AXIS,PERIOD,APOGEE,PERIGEE,DECAYED
51895.0,STARLINK-3594,PAYLOAD,2022-08-03 14:00:01,15.08817352,0.0002069,53.2173,138.359,54.8562,234.9145,0.0016355,0.00025821,0.0,0 STARLINK-3594,1 51895U 22022AV  22215.58334491  .00025821  00000-0  16355-2 0  9995,2 51895  53.2173 138.3590 0002069  54.8562 234.9145 15.08817352  1309,6917.95,95.439,541.246,538.383,0.0
51895.0,STARLINK-3594,PAYLOAD,2022-08-03 22:00:01,15.08850778,0.0002144,53.2174,136.863,56.0977,245.3088,-0.0013779999999999,-0.00022159,0.0,0 STARLINK-3594,1 51895U 22022AV  22215.91668981 -.00022159  00000-0 -13780-2 0  9998,2 51895  53.2174 136.8630 0002144  56.0977 245.3088 15.08850778  1307,6917.847,95.437,541.196,538.229,0.0
51895.0,STARLINK-3594,PAYLOAD,2022-08-04 06:00:00,15.08822183,0.0002261,53.2172,135.3679,51.6828,261.2638,0.0026892,0.0004275,0.0,0 STARLINK-3594,1 51895U 22022AV  22216.25001157  .00042750  00000-0  26892-2 0  9997,2 51895  53.2172 135.3679 0002261  51.6828 261.2638 15.08822183 24951,6917.935,95.439,541.364,538.236,0.0
51895.0,STARLINK-3594,PAYLOAD,2022-08-04 14:00:01,15.08837747,0.0002077,53.2174,133.8697,56.8871,267.6596,0.00046521,7.123e-05,0.0,0 STARLINK-3594,1 51895U 22022AV  22216.58334491  .00007123  00000-0  46521-3 0  9990,2 51895  53.2174 133.8697 0002077  56.8871 267.6596 15.08837747  1305,6917.887,95.438,541.189,538.315,0.0
51895.0,STARLINK-3594,PAYLOAD,2022-08-04 22:00:00,15.08847687,0.0002104,53.2175,132.374,56.2884,279.8536,-0.0023656,-0.00037749,0.0,0 STARLINK-3594,1 51895U 22022AV  22216.91667824 -.00037749  00000-0 -23656-2 0  9998,2 51895  53.2175 132.3740 0002104  56.2884 279.8536 15.08847687  1301,6917.857,95.437,541.177,538.266,0.0
51895.0,STARLINK-3594,PAYLOAD,2022-08-05 14:00:01,15.08812923,0.0002013,53.2174,129.3805,58.1745,301.21,0.0026203,0.0004163,0.0,0 STARLINK-3594,1 51895U 22022AV  22217.58335648  .00041630  00000-0  26203-2 0  9991,2 51895  53.2174 129.3805 0002013  58.1745 301.2100 15.08812923 25155,6917.9630000000025,95.439,541.221,538.436,0.0
51895.0,STARLINK-3594,PAYLOAD,2022-08-05 22:00:00,15.08856735,0.0002103,53.2175,127.8851,57.747,313.1521,-0.0016726,-0.00026822,0.0,0 STARLINK-3594,1 51895U 22022AV  22217.91667824 -.00026822  00000-0 -16726-2 0  9999,2 51895  53.2175 127.8851 0002103  57.7470 313.1521 15.08856735  1309,6917.829000000002,95.436,541.149,538.239,0.0
51895.0,STARLINK-3594,PAYLOAD,2022-08-06 14:00:01,15.08827236,0.0001948,53.2172,124.8914,59.8849,334.2299,0.00036065,5.454e-05,0.0,0 STARLINK-3594,1 51895U 22022AV  22218.58334491  .00005454  00000-0  36065-3 0  9999,2 51895  53.2172 124.8914 0001948  59.8849 334.2299 15.08827236 25319,6917.919,95.438,541.132,538.437,0.0
51895.0,STARLINK-3594,PAYLOAD,2022-08-06 20:12:33,15.08853053,0.0002125,53.2191,123.7315,60.9885,299.1319,-0.00013684,-2.466e-05,0.0,0 STARLINK-3594,1 51895U 22022AV  22218.84204967 -.00002466  00000-0 -13684-3 0  9996,2 51895  53.2191 123.7315 0002125  60.9885 299.1319 15.08853053 25356,6917.84,95.437,541.1759999999998,538.235,0.0
51895.0,STARLINK-3594,PAYLOAD,2022-08-07 04:09:29,15.08836289,0.0002177,53.219,122.2443,59.7745,300.3462,-0.00011351,-2.094e-05,0.0,0 STARLINK-3594,1 51895U 22022AV  22219.17325897 -.00002094  00000-0 -11351-3 0  9995,2 51895  53.2190 122.2443 0002177  59.7745 300.3462 15.08836289 25401,6917.892,95.438,541.263,538.251,0.0
51895.0,STARLINK-3594,PAYLOAD,2022-08-07 14:00:01,15.08811987,0.000195,53.217,120.4026,61.7698,7.1014,0.0029173,0.00046412,0.0,0 STARLINK-3594,1 51895U 22022AV  22219.58334491  .00046412  00000-0  29173-2 0  9990,2 51895  53.2170 120.4026 0001950  61.7698   7.1014 15.08811987  1300,6917.965999999999,95.439,541.18,538.482,0.0
51895.0,STARLINK-3594,PAYLOAD,2022-08-07 21:38:43,15.08839848,0.0002094,53.2188,118.9734,58.405,301.7146,2.9852e-05,1.87e-06,0.0,0 STARLINK-3594,1 51895U 22022AV  22219.90189500  .00000187  00000-0  29852-4 0  9990,2 51895  53.2188 118.9734 0002094  58.4050 301.7146 15.08839848 25516,6917.880999999999,95.438,541.194,538.297,0.0
51895.0,STARLINK-3594,PAYLOAD,2022-08-08 06:00:00,15.08855188,0.0002092,53.2169,117.4117,55.8044,36.2575,0.00036615,5.546e-05,0.0,0 STARLINK-3594,1 51895U 22022AV  22220.25001157  .00005546  00000-0  36615-3 0  9999,2 51895  53.2169 117.4117 0002092  55.8044  36.2575 15.08855188 25562,6917.834,95.437,541.146,538.252,0.0
51895.0,STARLINK-3594,PAYLOAD,2022-08-08 14:00:01,15.08832467,0.0001896,53.217,115.9136,62.1149,41.6463,0.002241,0.00035551,0.0,0 STARLINK-3594,1 51895U 22022AV  22220.58335648  .00035551  00000-0  22410-2 0  9996,2 51895  53.2170 115.9136 0001896  62.1149  41.6463 15.08832467  1303,6917.903,95.438,541.08,538.457,0.0
51895.0,STARLINK-3594,PAYLOAD,2022-08-08 22:00:00,15.08876574,0.0001986999999999,53.2172,114.4187,58.9716,56.3228,-0.0029996,-0.00047759,0.0,0 STARLINK-3594,1 51895U 22022AV  22220.91667824 -.00047759  00000-0 -29996-2 0  9998,2 51895  53.2172 114.4187 0001987  58.9716  56.3228 15.08876574  1308,6917.769,95.435,541.008,538.259,0.0
51895.0,STARLINK-3594,PAYLOAD,2022-08-09 06:00:00,15.08850108,0.000194,53.2171,112.9227,53.2094,73.7,-0.0023809,-0.00037992,0.0,0 STARLINK-3594,1 51895U 22022AV  22221.25001157 -.00037992  00000-0 -23809-2 0  9992,2 51895  53.2171 112.9227 0001940  53.2094  73.7000 15.08850108 25718,6917.849,95.437,541.057,538.372,0.0
51895.0,STARLINK-3594,PAYLOAD,2022-08-09 14:00:01,15.08794419,0.0001740999999999,53.2173,111.4247,58.1038,80.404,0.0030108,0.00047895,0.0,0 STARLINK-3594,1 51895U 22022AV  22221.58334491  .00047895  00000-0  30108-2 0  9999,2 51895  53.2173 111.4247 0001741  58.1038  80.4040 15.08794419  1307,6918.02,95.44,541.089,538.68,0.0
51895.0,STARLINK-3594,PAYLOAD,2022-08-09 22:00:00,15.08828149,0.0001847,53.2175,109.9299,54.6665,95.4016,-0.0032371,-0.00051423,0.0,0 STARLINK-3594,1 51895U 22022AV  22221.91667824 -.00051423  00000-0 -32371-2 0  9993,2 51895  53.2175 109.9299 0001847  54.6665  95.4016 15.08828149  1309,6917.917,95.438,541.059,538.504,0.0
51895.0,STARLINK-3594,PAYLOAD,2022-08-10 06:00:00,15.08809019,0.0001861,53.2175,108.4339,50.4346,111.1915,0.00035727,5.398e-05,0.0,0 STARLINK-3594,1 51895U 22022AV  22222.25001157  .00005398  00000-0  35727-3 0  9999,2 51895  53.2175 108.4339 0001861  50.4346 111.1915 15.08809019 25860,6917.975,95.44,541.128,538.553,0.0
51895.0,STARLINK-3594,PAYLOAD,2022-08-10 14:00:01,15.08794826,0.000174,53.2178,106.9361,57.1392,116.0519,0.0029579999999999,0.00047045,0.0,0 STARLINK-3594,1 51895U 22022AV  22222.58334491  .00047045  00000-0  29580-2 0  9999,2 51895  53.2178 106.9361 0001740  57.1392 116.0519 15.08794826  1308,6918.018,95.44,541.087,538.68,0.0
51895.0,STARLINK-3594,PAYLOAD,2022-08-10 22:00:00,15.08826151,0.0001909999999999,53.2179,105.4414,54.3446,130.4037,-0.00081608,-0.00013248,0.0,0 STARLINK-3594,1 51895U 22022AV  22222.91667824 -.00013248  00000-0 -81608-3 0  9995,2 51895  53.2179 105.4414 0001910  54.3446 130.4037 15.08826151  1302,6917.9230000000025,95.438,541.109,538.466,0.0
51895.0,STARLINK-3594,PAYLOAD,2022-08-11 06:00:02,15.08835659,0.0001931,53.2179,103.945,52.2612,144.119,-0.00047803,-7.887e-05,0.0,0 STARLINK-3594,1 51895U 22022AV  22223.25002315 -.00007887  00000-0 -47803-3 0  9992,2 51895  53.2179 103.9450 0001931  52.2612 144.1190 15.08835659 26010,6917.894,95.438,541.095,538.423,0.0
51895.0,STARLINK-3594,PAYLOAD,2022-08-11 14:00:01,15.08818473,0.0001814,53.2181,102.4472,58.9102,149.0004,0.002732,0.00043435,0.0,0 STARLINK-3594,1 51895U 22022AV  22223.58334491  .00043435  00000-0  27320-2 0  9999,2 51895  53.2181 102.4472 0001814  58.9102 149.0004 15.08818473  1306,6917.946,95.439,541.066,538.556,0.0
51895.0,STARLINK-3594,PAYLOAD,2022-08-12 00:00:00,15.08838135,0.0002019,53.2182,100.5787,54.3257,258.0773,0.0011780999999999,0.0001851,0.0,0 STARLINK-3594,1 51895U 22022AV  22224.00001157  .00018510  00000-0  11781-2 0  9997,2 51895  53.2182 100.5787 0002019  54.3257 258.0773 15.08838135 26122,6917.886,95.438,541.148,538.354,0.0
51895.0,STARLINK-3594,PAYLOAD,2022-08-12 14:00:01,15.08853824,0.0001764,53.2181,97.958,59.8406,182.8856,0.00022639,3.318e-05,0.0,0 STARLINK-3594,1 51895U 22022AV  22224.58334491  .00003318  00000-0  22639-3 0  9995,2 51895  53.2181  97.9580 0001764  59.8406 182.8856 15.08853824  1304,6917.8380000000025,95.437,540.923,538.4830000000002,0.0
51895.0,STARLINK-3594,PAYLOAD,2022-08-12 22:00:01,15.08847519,0.0001865,53.218,96.4632,54.2178,200.1808,-0.00034913,-5.842e-05,0.0,0 STARLINK-3594,1 51895U 22022AV  22224.91668981 -.00005842  00000-0 -34913-3 0  9990,2 51895  53.2180  96.4632 0001865  54.2178 200.1808 15.08847519 26269,6917.857,95.437,541.013,538.432,0.0
51895.0,STARLINK-3594,PAYLOAD,2022-08-13 14:00:01,15.087818099999998,0.0001745,53.2174,93.4718,55.5507,221.9842,0.0038638,0.00061644,0.0,0 STARLINK-3594,1 51895U 22022AV  22225.58334491  .00061644  00000-0  38638-2 0  9997,2 51895  53.2174  93.4718 0001745  55.5507 221.9842 15.08781810  1309,6918.058000000001,95.441,541.13,538.716,0.0
51895.0,STARLINK-3594,PAYLOAD,2022-08-13 22:00:00,15.08836571,0.0001896999999999,53.2175,91.9791,50.8063,238.2759,2.8329e-05,1.63e-06,0.0,0 STARLINK-3594,1 51895U 22022AV  22225.91667824  .00000163  00000-0  28329-4 0  9990,2 51895  53.2175  91.9791 0001897  50.8063 238.2759 15.08836571  1300,6917.891,95.438,541.068,538.444,0.0
51895.0,STARLINK-3594,PAYLOAD,2022-08-14 06:00:02,15.08838511,0.0001861,53.2173,90.4821,50.2058,250.5315,-0.00024418,-4.172e-05,0.0,0 STARLINK-3594,1 51895U 22022AV  22226.25002315 -.00004172  00000-0 -24418-3 0  9996,2 51895  53.2173  90.4821 0001861  50.2058 250.5315 15.08838511 26460,6917.885,95.438,541.0369999999998,538.4630000000002,0.0
